COSMOS 1408             
1 13552U 82092A   24198.54370217  .00071567  00000+0  60130-3 0  9998
2 13552  82.5523 211.0377 0012231 203.7790 156.2909 15.69539515150086
COSMOS 1408 DEB         
1 49527U 82092Q   24198.46034296  .00034021  00000+0  27428-2 0  9990
2 49527  82.3776 346.1983 0335036 346.8111  12.4484 14.64813204139302
COSMOS 1408 DEB         
1 49537U 82092AA  24198.57762348  .00023178  00000+0  92598-3 0  9991
2 49537  82.5516 264.4480 0109564 318.7236  40.5751 15.19527015146346
COSMOS 1408 DEB         
1 49539U 82092AC  24198.41017651  .00079912  00000+0  52373-2 0  9999
2 49539  82.1914 326.3931 0277920  13.8142 347.0474 14.80858845138967
COSMOS 1408 DEB         
1 49604U 82092CV  24198.53463292  .00641497  17219-3  15657-2 0  9992
2 49604  82.4862 219.7880 0020266 201.1679 158.8761 15.95806040148717
COSMOS 1408 DEB         
1 49619U 82092DL  24198.56892269  .00093927  00000+0  61068-2 0  9993
2 49619  81.9595 292.0754 0280147  16.9047 344.1266 14.80719374139278
COSMOS 1408 DEB         
1 49789U 82092JF  24198.63161692  .01654570  19096-2  21619-2 0  9992
2 49789  82.5746 239.7977 0022002 224.4508 135.5009 16.06932201148035
COSMOS 1408 DEB         
1 49840U 82092KX  24198.56558136  .01342262  10063-2  23862-2 0  9994
2 49840  82.4548 232.8687 0021440 265.7862  94.0967 16.01622446145749
COSMOS 1408 DEB         
1 50032U 82092RU  24198.55410544  .00004937  00000+0  12895-3 0  9993
2 50032  82.5647 222.7466 0016457 270.7298  89.2061 15.38380099146789
COSMOS 1408 DEB         
1 50058U 82092SW  24198.55977866  .00013114  00000+0  33919-3 0  9993
2 50058  82.6159 236.5472 0029714 178.1144 182.0219 15.38480414148373
COSMOS 1408 DEB         
1 50123U 82092VP  24198.47497044  .00089884  00000+0  65213-3 0  9991
2 50123  82.5528 211.5193 0009972 141.0362 219.1622 15.73036715149756
COSMOS 1408 DEB         
1 50351U 82092ABM 24197.94231223  .00030686  00000+0  10056-2 0  9990
2 50351  82.5199 268.9656 0116075 344.1344  15.6266 15.25112437145800
COSMOS 1408 DEB         
1 50363U 82092ABZ 24198.57039697  .00082554  00000+0  13734-2 0  9991
2 50363  82.4069 228.9773 0044666 300.5299  59.1547 15.50584676144445
COSMOS 1408 DEB         
1 50404U 82092ADS 24198.84385495  .00041719  00000+0  41744-2 0  9997
2 50404  82.2432 350.3035 0413213  64.6140 299.7228 14.44077914136145
COSMOS 1408 DEB         
1 50578U 82092AJW 24198.12706177  .00085668  00000+0  79246-3 0  9994
2 50578  82.7042 241.4396 0018265 183.6039 176.5094 15.67019924144848
COSMOS 1408 DEB         
1 50621U 82092ALR 24198.11890266  .00011018  00000+0  33282-3 0  9993
2 50621  82.5778 239.8838 0047042 216.3822 143.4221 15.32973894143078
COSMOS 1408 DEB         
1 50689U 82092APM 24198.52619144  .00034940  00000+0  55037-3 0  9997
2 50689  82.5087 214.2855 0039509 122.3853 238.1232 15.52474220143086
COSMOS 1408 DEB         
1 50730U 82092ARE 24198.49835786  .00080864  00000+0  73099-3 0  9996
2 50730  82.5529 216.9709 0014185 159.0559 201.1286 15.67689839143993
COSMOS 1408 DEB         
1 50967U 82092AXN 24198.58732437  .00675175  21617-3  10905-2 0  9999
2 50967  82.6992 235.7328 0009703 191.8447 168.2606 16.03417089143262
COSMOS 1408 DEB         
1 51184U 82092AZJ 24198.48686626  .00026149  00000+0  44820-3 0  9992
2 51184  82.4909 210.2964 0020915 125.8735 234.4463 15.50803739141042
COSMOS 1408 DEB         
1 51225U 82092BBB 24198.49226718  .00062302  00000+0  65549-3 0  9993
2 51225  82.4549 211.0156 0032606 255.7079 104.0558 15.63372427141714
COSMOS 1408 DEB         
1 51435U 82092BKH 24197.55014096  .00031360  00000+0  74775-3 0  9997
2 51435  82.5534 241.3512 0050503 238.9464 120.6819 15.40046878138400
COSMOS 1408 DEB         
1 51579U 82092BNG 24198.36840496  .00072187  00000+0  91527-3 0  9993
2 51579  82.4854 219.9887 0026895 225.8548 134.0497 15.58737802138992
COSMOS 1408 DEB         
1 51582U 82092BNK 24198.54983921  .00070424  00000+0  10708-2 0  9991
2 51582  82.5538 238.1019 0045364 213.0079 146.8341 15.53060189138751
COSMOS 1408 DEB         
1 52066U 82092BUU 24197.94926325  .00037642  00000+0  15006-2 0  9998
2 52066  82.5147 275.0730 0134411  17.1754 343.3960 15.16988218130743
